{
"type": "FeatureCollection",
"name": "aicd-sites",
"crs": { "type": "name", "properties": { "name": "urn:ogc:def:crs:OGC:1.3:CRS84" } },
"features": [
{ "type": "Feature", "properties": { "original_LOCID": "L000001", "original_Name": "Friendship House", "original_Year1": 1963, "original_Year2": null, "original_Type": "Org", "original_Number": 818, "original_Streetname": "Steiner", "original_Streetlabel": "Street", "original_ZIP": 94117, "original_Address": "818 Steiner Street, San Francisco, CA 94117", "original_TL_reference": "T000050", "original_TL_link1": "https://www.sfheritage.org/community/friendship-houses-origins-in-alamo-square/", "original_TL_link2": "", "original_TL_link3": "", "formatted": "818 Steiner Street, San Francisco, CA 94117, United States of America" }, "geometry": { "type": "Point", "coordinates": [ -122.432795, 37.777181 ] } },
{ "type": "Feature", "properties": { "original_LOCID": "L000002", "original_Name": "Residence of Russell Means", "original_Year1": 1964, "original_Year2": null, "original_Type": "Ind", "original_Number": 421, "original_Streetname": "Leavenworth", "original_Streetlabel": "Street", "original_ZIP": 94102, "original_Address": "421 Leavenworth Street, San Francisco, CA 94102", "original_TL_reference": "T000051", "original_TL_link1": "https://bongo-books.com/wp-content/uploads/2026/01/19640308SFE.jpg", "original_TL_link2": "https://bongo-books.com/wp-content/uploads/2026/01/19640308SFEa.jpg", "original_TL_link3": "https://bongo-books.com/wp-content/uploads/2026/01/19640308SFEb.jpg", "formatted": "421 Leavenworth Street, San Francisco, CA 94102, United States of America" }, "geometry": { "type": "Point", "coordinates": [ -122.414755, 37.784991 ] } },
{ "type": "Feature", "properties": { "original_LOCID": "L000003", "original_Name": "American Indian Historical Society", "original_Year1": 1964, "original_Year2": null, "original_Type": "Org", "original_Number": 1451, "original_Streetname": "Masonic", "original_Streetlabel": "Avenue", "original_ZIP": 94117, "original_Address": "1451 Masonic Avenue, San Francisco, CA 94117", "original_TL_reference": "T000055", "original_TL_link1": "https://bongo-books.com/wp-content/uploads/2026/01/19670910SFEd.jpg", "original_TL_link2": "https://bongo-books.com/wp-content/uploads/2026/01/19670910SFEe.jpg", "original_TL_link3": "", "formatted": "1451 Masonic Avenue, San Francisco, CA 94117, United States of America" }, "geometry": { "type": "Point", "coordinates": [ -122.444882, 37.766791 ] } },
{ "type": "Feature", "properties": { "original_LOCID": "L000004", "original_Name": "Indian Trading Post", "original_Year1": 1951, "original_Year2": null, "original_Type": "Biz", "original_Number": 3300, "original_Streetname": "Mission", "original_Streetlabel": "Street", "original_ZIP": 94110, "original_Address": "3300 Mission Street, San Francisco, CA 94110", "original_TL_reference": "T000202", "original_TL_link1": "", "original_TL_link2": "", "original_TL_link3": "", "formatted": "3300 Mission Street, San Francisco, CA 94114, United States of America" }, "geometry": { "type": "Point", "coordinates": [ -122.4211382, 37.7439432 ] } },
{ "type": "Feature", "properties": { "original_LOCID": "L000005", "original_Name": "American Indian Center (orig.)", "original_Year1": 1957, "original_Year2": 1970, "original_Type": "Org", "original_Number": 3053, "original_Streetname": "16th", "original_Streetlabel": "Street", "original_ZIP": 94110, "original_Address": "3053 16th Street, San Francisco, CA 94110", "original_TL_reference": "T000048", "original_TL_link1": "https://bongo-books.com/wp-content/uploads/2026/01/19700104SFEa.jpg", "original_TL_link2": "", "original_TL_link3": "", "formatted": "3053 16th Street, San Francisco, CA 94103, United States of America" }, "geometry": { "type": "Point", "coordinates": [ -122.4210512, 37.7648852 ] } },
{ "type": "Feature", "properties": { "original_LOCID": "L000006", "original_Name": "American Indian Center (temp.)", "original_Year1": 1970, "original_Year2": null, "original_Type": "Org", "original_Number": 3489, "original_Streetname": "Mission", "original_Streetlabel": "Street", "original_ZIP": 94110, "original_Address": "3489 Mission Street, San Francisco, CA 94110", "original_TL_reference": "T000073", "original_TL_link1": "https://bongo-books.com/wp-content/uploads/2026/01/19700104SFEa.jpg", "original_TL_link2": "", "original_TL_link3": "", "formatted": "3489 Mission Street, San Francisco, CA 94110, United States of America" }, "geometry": { "type": "Point", "coordinates": [ -122.422445, 37.741044 ] } },
{ "type": "Feature", "properties": { "original_LOCID": "L000007", "original_Name": "American Indian Center", "original_Year1": 1970, "original_Year2": 1990, "original_Type": "Org", "original_Number": 225, "original_Streetname": "Valencia", "original_Streetlabel": "Street", "original_ZIP": 94110, "original_Address": "225 Valencia Street, San Francisco, CA 94110", "original_TL_reference": "T000318", "original_TL_link1": "https://bongo-books.com/wp-content/uploads/2026/01/19701005SFE.jpg", "original_TL_link2": "", "original_TL_link3": "", "formatted": "225 Valencia Street, San Francisco, CA 94143, United States of America" }, "geometry": { "type": "Point", "coordinates": [ -122.4220575, 37.7694212 ] } },
{ "type": "Feature", "properties": { "original_LOCID": "L000008", "original_Name": "Star Hotel (Residence of Richard Oakes)", "original_Year1": 1968, "original_Year2": null, "original_Type": "Ind", "original_Number": 2176, "original_Streetname": "Mission", "original_Streetlabel": "Street", "original_ZIP": 94110, "original_Address": "2176 Mission Street, San Francisco, CA 94110", "original_TL_reference": "T000058", "original_TL_link1": "", "original_TL_link2": "", "original_TL_link3": "", "formatted": "2176 Mission Street, San Francisco, CA 94110, United States of America" }, "geometry": { "type": "Point", "coordinates": [ -122.41955, 37.762166 ] } },
{ "type": "Feature", "properties": { "original_LOCID": "L000009", "original_Name": "Warren's bar", "original_Year1": 1960, "original_Year2": null, "original_Type": "Biz", "original_Number": 3079, "original_Streetname": "16th", "original_Streetlabel": "Street", "original_ZIP": 94110, "original_Address": "3079 16th Street, San Francisco, CA 94110", "original_TL_reference": "T000210", "original_TL_link1": "https://bongo-books.com/wp-content/uploads/2026/01/19690716SFE.jpg", "original_TL_link2": "", "original_TL_link3": "", "formatted": "3079 16th Street, San Francisco, CA 94103, United States of America" }, "geometry": { "type": "Point", "coordinates": [ -122.421323, 37.764681 ] } },
{ "type": "Feature", "properties": { "original_LOCID": "L000010", "original_Name": "50 Church Street (\"The Little Reservation\")", "original_Year1": 1969, "original_Year2": null, "original_Type": "Hsg", "original_Number": 50, "original_Streetname": "Church", "original_Streetlabel": "Street", "original_ZIP": 94114, "original_Address": "50 Church Street, San Francisco, CA 94114", "original_TL_reference": "T000262", "original_TL_link1": "https://bongo-books.com/wp-content/uploads/2026/01/19690715SFE.jpg", "original_TL_link2": "", "original_TL_link3": "", "formatted": "50 Church Street, San Francisco, CA 94114, United States of America" }, "geometry": { "type": "Point", "coordinates": [ -122.42928, 37.7698965 ] } },
{ "type": "Feature", "properties": { "original_LOCID": "L000011", "original_Name": "NAHC (orig.)/Friendship House", "original_Year1": 1972, "original_Year2": null, "original_Type": "Org", "original_Number": 56, "original_Streetname": "Julian", "original_Streetlabel": "Avenue", "original_ZIP": 94103, "original_Address": "56 Julian Avenue, San Francisco, CA 94103", "original_TL_reference": "T000091", "original_TL_link1": "https://bongo-books.com/wp-content/uploads/2026/01/19720806SFE.jpg", "original_TL_link2": "https://bongo-books.com/wp-content/uploads/2026/01/19720805SFE.jpg", "original_TL_link3": "", "formatted": "56 Julian Avenue, San Francisco, CA 94103, United States of America" }, "geometry": { "type": "Point", "coordinates": [ -122.421396, 37.767246 ] } },
{ "type": "Feature", "properties": { "original_LOCID": "L000012", "original_Name": "Native American Health Center (NAHC)", "original_Year1": null, "original_Year2": null, "original_Type": "Org", "original_Number": 160, "original_Streetname": "Capp", "original_Streetlabel": "Street", "original_ZIP": 94110, "original_Address": "160 Capp Street, San Francisco, CA 94110", "original_TL_reference": "", "original_TL_link1": "", "original_TL_link2": "", "original_TL_link3": "", "formatted": "160 Capp Street, San Francisco, CA 94110, United States of America" }, "geometry": { "type": "Point", "coordinates": [ -122.4187451, 37.7638877 ] } },
{ "type": "Feature", "properties": { "original_LOCID": "L000013", "original_Name": "Region 9 American Indian Council", "original_Year1": 1972, "original_Year2": null, "original_Type": "Org", "original_Number": 130, "original_Streetname": "Bush", "original_Streetlabel": "Street", "original_ZIP": 94104, "original_Address": "130 Bush Street, San Francisco, CA 94104", "original_TL_reference": "T000340", "original_TL_link1": "https://bongo-books.com/wp-content/uploads/2026/01/19721204SFE.jpg", "original_TL_link2": "", "original_TL_link3": "", "formatted": "130 Bush Street, San Francisco, CA 94104, United States of America" }, "geometry": { "type": "Point", "coordinates": [ -122.4002172, 37.7915966 ] } },
{ "type": "Feature", "properties": { "original_LOCID": "L000014", "original_Name": "American Indian Workshop", "original_Year1": 1974, "original_Year2": null, "original_Type": "Org", "original_Number": 2507, "original_Streetname": "Bryant", "original_Streetlabel": "Street", "original_ZIP": 94110, "original_Address": "2507 Bryant Street, San Francisco, CA 94110", "original_TL_reference": "T000371", "original_TL_link1": "https://bongo-books.com/wp-content/uploads/2026/01/19740911SFE.jpg", "original_TL_link2": "https://bongo-books.com/wp-content/uploads/2026/01/19750522SFE.jpg", "original_TL_link3": "", "formatted": "2507 Bryant Street, San Francisco, CA 94110, United States of America" }, "geometry": { "type": "Point", "coordinates": [ -122.4091443, 37.75420829 ] } },
{ "type": "Feature", "properties": { "original_LOCID": "L000015", "original_Name": "Gartland Apartments", "original_Year1": 1976, "original_Year2": null, "original_Type": "Hsg", "original_Number": 495, "original_Streetname": "Valencia", "original_Streetlabel": "Street", "original_ZIP": 94110, "original_Address": "495 Valencia Street, San Francisco, CA 94110", "original_TL_reference": "T000402", "original_TL_link1": "https://bongo-books.com/wp-content/uploads/2026/01/19760229SFE.jpg", "original_TL_link2": "", "original_TL_link3": "", "formatted": "495 Valencia Street, San Francisco, CA 94103, United States of America" }, "geometry": { "type": "Point", "coordinates": [ -122.421799, 37.76509673 ] } },
{ "type": "Feature", "properties": { "original_LOCID": "L000016", "original_Name": "San Francisco State University", "original_Year1": 1970, "original_Year2": null, "original_Type": "Ven", "original_Number": 1600, "original_Streetname": "Holloway", "original_Streetlabel": "Avenue", "original_ZIP": 94132, "original_Address": "1600 Holloway Avenue, San Francisco, CA 94132", "original_TL_reference": "T000062", "original_TL_link1": "https://bongo-books.com/wp-content/uploads/2026/01/19690723SFE.jpg", "original_TL_link2": "", "original_TL_link3": "", "formatted": "San Francisco State University, 1600 Holloway Avenue, San Francisco, CA 94132, United States of America" }, "geometry": { "type": "Point", "coordinates": [ -122.4799957, 37.7245167 ] } },
{ "type": "Feature", "properties": { "original_LOCID": "L000017", "original_Name": "Palace of Fine Arts (AIFF)", "original_Year1": 1975, "original_Year2": null, "original_Type": "Ven", "original_Number": 3301, "original_Streetname": "Lyon", "original_Streetlabel": "Street", "original_ZIP": 94123, "original_Address": "3301 Lyon Street, San Francisco, CA 94123", "original_TL_reference": "T000415", "original_TL_link1": "https://bongo-books.com/wp-content/uploads/2026/01/19770522SFEa.jpg", "original_TL_link2": "https://bongo-books.com/wp-content/uploads/2026/01/19770522SFEb.jpg", "original_TL_link3": "", "formatted": "Palace of Fine Arts, 3301 Lyon Street, San Francisco, CA 94123, United States of America" }, "geometry": { "type": "Point", "coordinates": [ -122.4484029, 37.80291855 ] } },
{ "type": "Feature", "properties": { "original_LOCID": "L000018", "original_Name": "Fort Mason Center", "original_Year1": 1979, "original_Year2": null, "original_Type": "Ven", "original_Number": 2, "original_Streetname": "Marina", "original_Streetlabel": "Boulevard", "original_ZIP": 94123, "original_Address": "2 Marina Boulevard, San Francisco, CA 94123", "original_TL_reference": "T000445", "original_TL_link1": "https://bongo-books.com/wp-content/uploads/2026/01/19790614SFE.jpg", "original_TL_link2": "", "original_TL_link3": "", "formatted": "2 Marina Boulevard, San Francisco, CA 94123, United States of America" }, "geometry": { "type": "Point", "coordinates": [ -122.4316909, 37.8066751 ] } },
{ "type": "Feature", "properties": { "original_LOCID": "L000019", "original_Name": "Indians of California, Inc.", "original_Year1": 1935, "original_Year2": null, "original_Type": "Org", "original_Number": 681, "original_Streetname": "Market", "original_Streetlabel": "Street", "original_ZIP": 94105, "original_Address": "681 Market Street, San Francisco, CA 94105", "original_TL_reference": "T000202", "original_TL_link1": "", "original_TL_link2": "", "original_TL_link3": "", "formatted": "681 Market Street, San Francisco, CA 94105, United States of America" }, "geometry": { "type": "Point", "coordinates": [ -122.4026291, 37.78809528 ] } },
{ "type": "Feature", "properties": { "original_LOCID": "L000020", "original_Name": "Indian Defense Association", "original_Year1": 1935, "original_Year2": null, "original_Type": "Org", "original_Number": 226, "original_Streetname": "Montgomery", "original_Streetlabel": "Street", "original_ZIP": 94104, "original_Address": "226 Montgomery Street, San Francisco, CA 94104", "original_TL_reference": "T000202", "original_TL_link1": "", "original_TL_link2": "", "original_TL_link3": "", "formatted": "226 Montgomery Street, San Francisco, CA 94104, United States of America" }, "geometry": { "type": "Point", "coordinates": [ -122.4023404, 37.791286 ] } },
{ "type": "Feature", "properties": { "original_LOCID": "L000021", "original_Name": "Indian Board of Cooperation", "original_Year1": 1920, "original_Year2": null, "original_Type": "Org", "original_Number": 801, "original_Streetname": "Market", "original_Streetlabel": "Street", "original_ZIP": 94103, "original_Address": "801 Market Street, San Francisco, CA 94103", "original_TL_reference": "T000193", "original_TL_link1": "https://bongo-books.com/wp-content/uploads/2026/01/19201222SFC.jpg", "original_TL_link2": "", "original_TL_link3": "", "formatted": "801 Market Street, San Francisco, CA 94103, United States of America" }, "geometry": { "type": "Point", "coordinates": [ -122.405868, 37.785599 ] } },
{ "type": "Feature", "properties": { "original_LOCID": "L000022", "original_Name": "Indian Board of Cooperation (orig.)", "original_Year1": 1910, "original_Year2": null, "original_Type": "Org", "original_Number": 115, "original_Streetname": "Market", "original_Streetlabel": "Street", "original_ZIP": 94105, "original_Address": "115 Market Street, San Francisco, CA 94105", "original_TL_reference": "T000192", "original_TL_link1": "https://bongo-books.com/wp-content/uploads/2026/01/19190113SFC.jpg", "original_TL_link2": "", "original_TL_link3": "", "formatted": "115 Market Street, San Francisco, CA 94105, United States of America" }, "geometry": { "type": "Point", "coordinates": [ -122.3956913, 37.79355857 ] } },
{ "type": "Feature", "properties": { "original_LOCID": "L000023", "original_Name": "Brooks Hall (Arts & Crafts Show & Sale)", "original_Year1": 1972, "original_Year2": 1974, "original_Type": "Ven", "original_Number": null, "original_Streetname": "", "original_Streetlabel": "", "original_ZIP": null, "original_Address": "", "original_TL_reference": "T000359", "original_TL_link1": "https://bongo-books.com/wp-content/uploads/2026/01/19731202SFE.jpg", "original_TL_link2": "https://bongo-books.com/wp-content/uploads/2026/01/19741209SFE.jpg", "original_TL_link3": "", "formatted": "" }, "geometry": null },
{ "type": "Feature", "properties": { "original_LOCID": "L000024", "original_Name": "Alcatraz Island (post-prison)", "original_Year1": 1964, "original_Year2": null, "original_Type": "Ven", "original_Number": null, "original_Streetname": "", "original_Streetlabel": "", "original_ZIP": null, "original_Address": "", "original_TL_reference": "T000051", "original_TL_link1": "https://bongo-books.com/wp-content/uploads/2026/01/19640308SFE.jpg", "original_TL_link2": "https://bongo-books.com/wp-content/uploads/2026/01/19640308SFEa.jpg", "original_TL_link3": "https://bongo-books.com/wp-content/uploads/2026/01/19640308SFEb.jpg", "formatted": "" }, "geometry": null }
]
}  {
      "type": "Feature",
      "properties": {
        "LOCID": "L000022",
        "Name": "Indian Board of Cooperation (orig.)",
        "Year1": 1910,
        "Year2": "",
        "Type": "Org",
        "Number": 115,
        "Streetname": "Market",
        "Streetlabel": "Street",
        "Unit": "",
        "ZIP": 94105,
        "Address": "115 Market Street  San Francisco CA 94105",
        "TL_reference": "T000192",
        "TL_link1": "https://bongo-books.com/wp-content/uploads/2026/01/19190113SFC.jpg",
        "TL_link2": "",
        "TL_link3": "",
        "TL_link4": "",
        "TL_link5": "",
        "TL_link6": "",
        "TL_link7": ""
      },
      "geometry": {
        "type": "Point",
        "coordinates": [
          -122.3956913,
          37.79355857142857
        ]
      }
    },
    {
      "type": "Feature",
      "properties": {
        "LOCID": "L000021",
        "Name": "Indian Board of Cooperation",
        "Year1": 1920,
        "Year2": "",
        "Type": "Org",
        "Number": 801,
        "Streetname": "Market",
        "Streetlabel": "Street",
        "Unit": "",
        "ZIP": 94103,
        "Address": "801 Market Street  San Francisco CA 94103",
        "TL_reference": "T000193",
        "TL_link1": "https://bongo-books.com/wp-content/uploads/2026/01/19201222SFC.jpg",
        "TL_link2": "",
        "TL_link3": "",
        "TL_link4": "",
        "TL_link5": "",
        "TL_link6": "",
        "TL_link7": ""
      },
      "geometry": {
        "type": "Point",
        "coordinates": [
          -122.405868,
          37.785599
        ]
      }
    },
    {
      "type": "Feature",
      "properties": {
        "LOCID": "L000002",
        "Name": "Residence of Russell Means (1964)",
        "Year1": 1964,
        "Year2": "",
        "Type": "Ind",
        "Number": 421,
        "Streetname": "Leavenworth",
        "Streetlabel": "Street",
        "Unit": "",
        "ZIP": 94102,
        "Address": "421 Leavenworth Street  San Francisco CA 94102",
        "TL_reference": "T000051",
        "TL_link1": "https://bongo-books.com/wp-content/uploads/2026/01/19640308SFE.jpg",
        "TL_link2": "https://bongo-books.com/wp-content/uploads/2026/01/19640308SFEa.jpg",
        "TL_link3": "https://bongo-books.com/wp-content/uploads/2026/01/19640308SFEb.jpg",
        "TL_link4": "",
        "TL_link5": "",
        "TL_link6": "",
        "TL_link7": ""
      },
      "geometry": {
        "type": "Point",
        "coordinates": [
          -122.414755,
          37.784991
        ]
      }
    },
    {
      "type": "Feature",
      "properties": {
        "LOCID": "L000024",
        "Name": "Alcatraz Island (post-prison)",
        "Year1": 1964,
        "Year2": "",
        "Type": "Ven",
        "Number": "",
        "Streetname": "",
        "Streetlabel": "",
        "Unit": "",
        "ZIP": "",
        "Address": "",
        "TL_reference": "T000051",
        "TL_link1": "https://bongo-books.com/wp-content/uploads/2026/01/19640308SFE.jpg",
        "TL_link2": "https://bongo-books.com/wp-content/uploads/2026/01/19640308SFEa.jpg",
        "TL_link3": "https://bongo-books.com/wp-content/uploads/2026/01/19640308SFEb.jpg",
        "TL_link4": "",
        "TL_link5": "",
        "TL_link6": "",
        "TL_link7": ""
      },
      "geometry": {
        "type": "Point",
        "coordinates": [
          -122.42,
          37.826059
        ]
      }
    },
    {
      "type": "Feature",
      "properties": {
        "LOCID": "L000003",
        "Name": "American Indian Historical Society",
        "Year1": 1964,
        "Year2": "",
        "Type": "Org",
        "Number": 1451,
        "Streetname": "Masonic",
        "Streetlabel": "Avenue",
        "Unit": "",
        "ZIP": 94117,
        "Address": "1451 Masonic Avenue  San Francisco CA 94117",
        "TL_reference": "T000055",
        "TL_link1": "https://bongo-books.com/wp-content/uploads/2026/01/19670910SFEd.jpg",
        "TL_link2": "https://bongo-books.com/wp-content/uploads/2026/01/19670910SFEe.jpg",
        "TL_link3": "",
        "TL_link4": "",
        "TL_link5": "",
        "TL_link6": "",
        "TL_link7": ""
      },
      "geometry": {
        "type": "Point",
        "coordinates": [
          -122.444882,
          37.766791
        ]
      }
    },
    {
      "type": "Feature",
      "properties": {
        "LOCID": "L000010",
        "Name": "50 Church Street ",
        "Year1": 1969,
        "Year2": "",
        "Type": "Hsg",
        "Number": 50,
        "Streetname": "Church",
        "Streetlabel": "Street",
        "Unit": "",
        "ZIP": 94114,
        "Address": "50 Church Street  San Francisco CA 94114",
        "TL_reference": "T000262",
        "TL_link1": "https://bongo-books.com/wp-content/uploads/2026/01/19690715SFE.jpg",
        "TL_link2": "",
        "TL_link3": "",
        "TL_link4": "",
        "TL_link5": "",
        "TL_link6": "",
        "TL_link7": ""
      },
      "geometry": {
        "type": "Point",
        "coordinates": [
          -122.42928,
          37.7698965
        ]
      }
    },
    {
      "type": "Feature",
      "properties": {
        "LOCID": "L000009",
        "Name": "Warren's bar",
        "Year1": 1960,
        "Year2": "",
        "Type": "Biz",
        "Number": 3079,
        "Streetname": "16th",
        "Streetlabel": "Street",
        "Unit": "",
        "ZIP": 94110,
        "Address": "3079 16th Street  San Francisco CA 94110",
        "TL_reference": "T000210",
        "TL_link1": "https://bongo-books.com/wp-content/uploads/2026/01/19690716SFE.jpg",
        "TL_link2": "",
        "TL_link3": "",
        "TL_link4": "",
        "TL_link5": "",
        "TL_link6": "",
        "TL_link7": ""
      },
      "geometry": {
        "type": "Point",
        "coordinates": [
          -122.421323,
          37.764681
        ]
      }
    },
    {
      "type": "Feature",
      "properties": {
        "LOCID": "L000016",
        "Name": "San Francisco State University",
        "Year1": 1970,
        "Year2": "",
        "Type": "Ven",
        "Number": 1600,
        "Streetname": "Holloway",
        "Streetlabel": "Avenue",
        "Unit": "",
        "ZIP": 94132,
        "Address": "1600 Holloway Avenue  San Francisco CA 94132",
        "TL_reference": "T000062",
        "TL_link1": "https://bongo-books.com/wp-content/uploads/2026/01/19690723SFE.jpg",
        "TL_link2": "",
        "TL_link3": "",
        "TL_link4": "",
        "TL_link5": "",
        "TL_link6": "",
        "TL_link7": ""
      },
      "geometry": {
        "type": "Point",
        "coordinates": [
          -122.4799957,
          37.7245167
        ]
      }
    },
    {
      "type": "Feature",
      "properties": {
        "LOCID": "L000005",
        "Name": "American Indian Center (orig.)",
        "Year1": 1957,
        "Year2": 1970,
        "Type": "Org",
        "Number": 3053,
        "Streetname": "16th",
        "Streetlabel": "Street",
        "Unit": "",
        "ZIP": 94110,
        "Address": "3053 16th Street  San Francisco CA 94110",
        "TL_reference": "T000048",
        "TL_link1": "https://bongo-books.com/wp-content/uploads/2026/01/19700104SFEa.jpg",
        "TL_link2": "",
        "TL_link3": "",
        "TL_link4": "",
        "TL_link5": "",
        "TL_link6": "",
        "TL_link7": ""
      },
      "geometry": {
        "type": "Point",
        "coordinates": [
          -122.4210512,
          37.7648852
        ]
      }
    },
    {
      "type": "Feature",
      "properties": {
        "LOCID": "L000006",
        "Name": "American Indian Center (temp.)",
        "Year1": 1970,
        "Year2": "",
        "Type": "Org",
        "Number": 3489,
        "Streetname": "Mission",
        "Streetlabel": "Street",
        "Unit": "",
        "ZIP": 94110,
        "Address": "3489 Mission Street  San Francisco CA 94110",
        "TL_reference": "T000073",
        "TL_link1": "https://bongo-books.com/wp-content/uploads/2026/01/19700104SFEa.jpg",
        "TL_link2": "",
        "TL_link3": "",
        "TL_link4": "",
        "TL_link5": "",
        "TL_link6": "",
        "TL_link7": ""
      },
      "geometry": {
        "type": "Point",
        "coordinates": [
          -122.422445,
          37.741044
        ]
      }
    },
    {
      "type": "Feature",
      "properties": {
        "LOCID": "L000007",
        "Name": "American Indian Center",
        "Year1": 1970,
        "Year2": 1990,
        "Type": "Org",
        "Number": 225,
        "Streetname": "Valencia",
        "Streetlabel": "Street",
        "Unit": "",
        "ZIP": 94110,
        "Address": "225 Valencia Street  San Francisco CA 94110",
        "TL_reference": "T000318",
        "TL_link1": "https://bongo-books.com/wp-content/uploads/2026/01/19701005SFE.jpg",
        "TL_link2": "",
        "TL_link3": "",
        "TL_link4": "",
        "TL_link5": "",
        "TL_link6": "",
        "TL_link7": ""
      },
      "geometry": {
        "type": "Point",
        "coordinates": [
          -122.4220575,
          37.7694212
        ]
      }
    },
    {
      "type": "Feature",
      "properties": {
        "LOCID": "L000011",
        "Name": "NAHC (orig.)/Friendship House",
        "Year1": 1972,
        "Year2": "",
        "Type": "Org",
        "Number": 56,
        "Streetname": "Julian",
        "Streetlabel": "Avenue",
        "Unit": "",
        "ZIP": 94103,
        "Address": "56 Julian Avenue  San Francisco CA 94103",
        "TL_reference": "T000091",
        "TL_link1": "https://bongo-books.com/wp-content/uploads/2026/01/19720806SFE.jpg",
        "TL_link2": "https://bongo-books.com/wp-content/uploads/2026/01/19720805SFE.jpg",
        "TL_link3": "",
        "TL_link4": "",
        "TL_link5": "",
        "TL_link6": "",
        "TL_link7": ""
      },
      "geometry": {
        "type": "Point",
        "coordinates": [
          -122.421396,
          37.767246
        ]
      }
    },
    {
      "type": "Feature",
      "properties": {
        "LOCID": "L000013",
        "Name": "Region 9 American Indian Council",
        "Year1": 1972,
        "Year2": "",
        "Type": "Org",
        "Number": 130,
        "Streetname": "Bush",
        "Streetlabel": "Street",
        "Unit": "",
        "ZIP": 94104,
        "Address": "130 Bush Street  San Francisco CA 94104",
        "TL_reference": "T000340",
        "TL_link1": "https://bongo-books.com/wp-content/uploads/2026/01/19721204SFE.jpg",
        "TL_link2": "",
        "TL_link3": "",
        "TL_link4": "",
        "TL_link5": "",
        "TL_link6": "",
        "TL_link7": ""
      },
      "geometry": {
        "type": "Point",
        "coordinates": [
          -122.4002172,
          37.791596600000005
        ]
      }
    },
    {
      "type": "Feature",
      "properties": {
        "LOCID": "L000023",
        "Name": "Brooks Hall (Arts & Crafts Show & Sale)",
        "Year1": 1972,
        "Year2": 1974,
        "Type": "Ven",
        "Number": 355,
        "Streetname": "McAllister",
        "Streetlabel": "Street",
        "Unit": "",
        "ZIP": 94102,
        "Address": "355 McAllister Street  San Francisco CA 94102",
        "TL_reference": "T000359",
        "TL_link1": "https://bongo-books.com/wp-content/uploads/2026/01/19731202SFE.jpg",
        "TL_link2": "https://bongo-books.com/wp-content/uploads/2026/01/19741209SFE.jpg",
        "TL_link3": "",
        "TL_link4": "",
        "TL_link5": "",
        "TL_link6": "",
        "TL_link7": ""
      },
      "geometry": {
        "type": "Point",
        "coordinates": [
          -122.4177468,
          37.7801098
        ]
      }
    },
    {
      "type": "Feature",
      "properties": {
        "LOCID": "L000014",
        "Name": "American Indian Workshop",
        "Year1": 1974,
        "Year2": "",
        "Type": "Org",
        "Number": 2507,
        "Streetname": "Bryant",
        "Streetlabel": "Street",
        "Unit": "",
        "ZIP": 94110,
        "Address": "2507 Bryant Street  San Francisco CA 94110",
        "TL_reference": "T000371",
        "TL_link1": "https://bongo-books.com/wp-content/uploads/2026/01/19740911SFE.jpg",
        "TL_link2": "https://bongo-books.com/wp-content/uploads/2026/01/19750522SFE.jpg",
        "TL_link3": "",
        "TL_link4": "",
        "TL_link5": "",
        "TL_link6": "",
        "TL_link7": ""
      },
      "geometry": {
        "type": "Point",
        "coordinates": [
          -122.4091443,
          37.75420829452445
        ]
      }
    },
    {
      "type": "Feature",
      "properties": {
        "LOCID": "L000015",
        "Name": "Gartland Apartments",
        "Year1": 1976,
        "Year2": "",
        "Type": "Hsg",
        "Number": 495,
        "Streetname": "Valencia",
        "Streetlabel": "Street",
        "Unit": "",
        "ZIP": 94110,
        "Address": "495 Valencia Street  San Francisco CA 94110",
        "TL_reference": "T000402",
        "TL_link1": "https://bongo-books.com/wp-content/uploads/2026/01/19760229SFE.jpg",
        "TL_link2": "",
        "TL_link3": "",
        "TL_link4": "",
        "TL_link5": "",
        "TL_link6": "",
        "TL_link7": ""
      },
      "geometry": {
        "type": "Point",
        "coordinates": [
          -122.421799,
          37.76509672727273
        ]
      }
    },
    {
      "type": "Feature",
      "properties": {
        "LOCID": "L000050",
        "Name": "Sincere Hotel",
        "Year1": 1971,
        "Year2": 1976,
        "Type": "Hsg",
        "Number": 3078,
        "Streetname": "16th",
        "Streetlabel": "Street",
        "Unit": "",
        "ZIP": 94110,
        "Address": "3078 16th Street  San Francisco CA 94110",
        "TL_reference": "T000407",
        "TL_link1": "https://bongo-books.com/wp-content/uploads/2026/01/19761129SFE.jpg",
        "TL_link2": "",
        "TL_link3": "",
        "TL_link4": "",
        "TL_link5": "",
        "TL_link6": "",
        "TL_link7": ""
      },
      "geometry": {
        "type": "Point",
        "coordinates": [
          -122.421589,
          37.76501823076923
        ]
      }
    },
    {
      "type": "Feature",
      "properties": {
        "LOCID": "L000017",
        "Name": "Palace of Fine Arts (AIFF)",
        "Year1": 1975,
        "Year2": "",
        "Type": "Ven",
        "Number": 3301,
        "Streetname": "Lyon",
        "Streetlabel": "Street",
        "Unit": "",
        "ZIP": 94123,
        "Address": "3301 Lyon Street  San Francisco CA 94123",
        "TL_reference": "T000415",
        "TL_link1": "https://bongo-books.com/wp-content/uploads/2026/01/19770522SFEa.jpg",
        "TL_link2": "https://bongo-books.com/wp-content/uploads/2026/01/19770522SFEb.jpg",
        "TL_link3": "",
        "TL_link4": "",
        "TL_link5": "",
        "TL_link6": "",
        "TL_link7": ""
      },
      "geometry": {
        "type": "Point",
        "coordinates": [
          -122.4484029,
          37.80291855
        ]
      }
    },
    {
      "type": "Feature",
      "properties": {
        "LOCID": "L000018",
        "Name": "Fort Mason Center",
        "Year1": 1979,
        "Year2": "",
        "Type": "Ven",
        "Number": 2,
        "Streetname": "Marina",
        "Streetlabel": "Boulevard",
        "Unit": "",
        "ZIP": 94123,
        "Address": "2 Marina Boulevard  San Francisco CA 94123",
        "TL_reference": "T000445",
        "TL_link1": "https://bongo-books.com/wp-content/uploads/2026/01/19790614SFE.jpg",
        "TL_link2": "",
        "TL_link3": "",
        "TL_link4": "",
        "TL_link5": "",
        "TL_link6": "",
        "TL_link7": ""
      },
      "geometry": {
        "type": "Point",
        "coordinates": [
          -122.4316909,
          37.8066751
        ]
      }
    },
    {
      "type": "Feature",
      "properties": {
        "LOCID": "L000046",
        "Name": "Indian Treaty Council (orig.)",
        "Year1": 1978,
        "Year2": "",
        "Type": "Org",
        "Number": 870,
        "Streetname": "Market",
        "Streetlabel": "Street",
        "Unit": "",
        "ZIP": 94102,
        "Address": "870 Market Street  San Francisco CA 94102",
        "TL_reference": "",
        "TL_link1": "https://drive.google.com/file/d/1hCTKQLC_9lEJaazzGJOk-JGTGtxZT6ER/view?usp=sharing",
        "TL_link2": "",
        "TL_link3": "",
        "TL_link4": "",
        "TL_link5": "",
        "TL_link6": "",
        "TL_link7": ""
      },
      "geometry": {
        "type": "Point",
        "coordinates": [
          -122.407547,
          37.78424438
        ]
      }
    },
    {
      "type": "Feature",
      "properties": {
        "LOCID": "L000049",
        "Name": "Bay Area American Indian Two-Spirits",
        "Year1": "",
        "Year2": 2026,
        "Type": "Org",
        "Number": 415,
        "Streetname": "Valencia",
        "Streetlabel": "Street",
        "Unit": "",
        "ZIP": 94103,
        "Address": "415 Valencia Street  San Francisco CA 94103",
        "TL_reference": "",
        "TL_link1": "https://www.baaits.org/",
        "TL_link2": "",
        "TL_link3": "",
        "TL_link4": "",
        "TL_link5": "",
        "TL_link6": "",
        "TL_link7": ""
      },
      "geometry": {
        "type": "Point",
        "coordinates": [
          -122.421885,
          37.76641603
        ]
      }
    },
    {
      "type": "Feature",
      "properties": {
        "LOCID": "L000001",
        "Name": "Friendship House",
        "Year1": 1963,
        "Year2": "",
        "Type": "Org",
        "Number": 818,
        "Streetname": "Steiner",
        "Streetlabel": "Street",
        "Unit": "",
        "ZIP": 94117,
        "Address": "818 Steiner Street  San Francisco CA 94117",
        "TL_reference": "T000050",
        "TL_link1": "https://www.sfheritage.org/community/friendship-houses-origins-in-alamo-square/",
        "TL_link2": "",
        "TL_link3": "",
        "TL_link4": "",
        "TL_link5": "",
        "TL_link6": "",
        "TL_link7": ""
      },
      "geometry": {
        "type": "Point",
        "coordinates": [
          -122.432795,
          37.777181
        ]
      }
    },
    {
      "type": "Feature",
      "properties": {
        "LOCID": "L000004",
        "Name": "Indian Trading Post",
        "Year1": 1951,
        "Year2": "",
        "Type": "Biz",
        "Number": 3300,
        "Streetname": "Mission",
        "Streetlabel": "Street",
        "Unit": "",
        "ZIP": 94110,
        "Address": "3300 Mission Street  San Francisco CA 94110",
        "TL_reference": "T000202",
        "TL_link1": "",
        "TL_link2": "",
        "TL_link3": "",
        "TL_link4": "",
        "TL_link5": "",
        "TL_link6": "",
        "TL_link7": ""
      },
      "geometry": {
        "type": "Point",
        "coordinates": [
          -122.4211382,
          37.7439432
        ]
      }
    },
    {
      "type": "Feature",
      "properties": {
        "LOCID": "L000008",
        "Name": "Star Hotel (1968 residence of Richard Oakes)",
        "Year1": 1968,
        "Year2": "",
        "Type": "Ind",
        "Number": 2176,
        "Streetname": "Mission",
        "Streetlabel": "Street",
        "Unit": "",
        "ZIP": 94110,
        "Address": "2176 Mission Street  San Francisco CA 94110",
        "TL_reference": "T000058",
        "TL_link1": "",
        "TL_link2": "",
        "TL_link3": "",
        "TL_link4": "",
        "TL_link5": "",
        "TL_link6": "",
        "TL_link7": ""
      },
      "geometry": {
        "type": "Point",
        "coordinates": [
          -122.41955,
          37.762166
        ]
      }
    },
    {
      "type": "Feature",
      "properties": {
        "LOCID": "L000020",
        "Name": "Indian Defense Association",
        "Year1": 1935,
        "Year2": "",
        "Type": "Org",
        "Number": 226,
        "Streetname": "Montgomery",
        "Streetlabel": "Street",
        "Unit": "",
        "ZIP": 94104,
        "Address": "226 Montgomery Street  San Francisco CA 94104",
        "TL_reference": "T000202",
        "TL_link1": "",
        "TL_link2": "",
        "TL_link3": "",
        "TL_link4": "",
        "TL_link5": "",
        "TL_link6": "",
        "TL_link7": ""
      },
      "geometry": {
        "type": "Point",
        "coordinates": [
          -122.4023404,
          37.791286
        ]
      }
    },
    {
      "type": "Feature",
      "properties": {
        "LOCID": "L000019",
        "Name": "Indians of California Inc.",
        "Year1": 1935,
        "Year2": "",
        "Type": "Org",
        "Number": 681,
        "Streetname": "Market",
        "Streetlabel": "Street",
        "Unit": "",
        "ZIP": 94105,
        "Address": "681 Market Street  San Francisco CA 94105",
        "TL_reference": "T000202",
        "TL_link1": "",
        "TL_link2": "",
        "TL_link3": "",
        "TL_link4": "",
        "TL_link5": "",
        "TL_link6": "",
        "TL_link7": ""
      },
      "geometry": {
        "type": "Point",
        "coordinates": [
          -122.4026291,
          37.78809528
        ]
      }
    },
    {
      "type": "Feature",
      "properties": {
        "LOCID": "L000012",
        "Name": "Native American Health Center (NAHC)",
        "Year1": "",
        "Year2": "",
        "Type": "Org",
        "Number": 160,
        "Streetname": "Capp",
        "Streetlabel": "Street",
        "Unit": "",
        "ZIP": 94110,
        "Address": "160 Capp Street  San Francisco CA 94110",
        "TL_reference": "",
        "TL_link1": "",
        "TL_link2": "",
        "TL_link3": "",
        "TL_link4": "",
        "TL_link5": "",
        "TL_link6": "",
        "TL_link7": ""
      },
      "geometry": {
        "type": "Point",
        "coordinates": [
          -122.4187451,
          37.7638877
        ]
      }
    },
    {
      "type": "Feature",
      "properties": {
        "LOCID": "L000047",
        "Name": "American Indian Film Institute",
        "Year1": "",
        "Year2": 2026,
        "Type": "Org",
        "Number": 1446,
        "Streetname": "Market",
        "Streetlabel": "Street",
        "Unit": "",
        "ZIP": 94102,
        "Address": "1446 Market Street  San Francisco CA 94102",
        "TL_reference": "",
        "TL_link1": "",
        "TL_link2": "",
        "TL_link3": "",
        "TL_link4": "",
        "TL_link5": "",
        "TL_link6": "",
        "TL_link7": ""
      },
      "geometry": {
        "type": "Point",
        "coordinates": [
          -122.418511,
          37.7760356
        ]
      }
    },
    {
      "type": "Feature",
      "properties": {
        "LOCID": "L000048",
        "Name": "American Indian Treaty Council",
        "Year1": "",
        "Year2": 2026,
        "Type": "Org",
        "Number": 2169,
        "Streetname": "Folsom",
        "Streetlabel": "Street",
        "Unit": "",
        "ZIP": 94110,
        "Address": "2169 Folsom Street  San Francisco CA 94110",
        "TL_reference": "",
        "TL_link1": "",
        "TL_link2": "",
        "TL_link3": "",
        "TL_link4": "",
        "TL_link5": "",
        "TL_link6": "",
        "TL_link7": ""
      },
      "geometry": {
        "type": "Point",
        "coordinates": [
          -122.4147308,
          37.762626
        ]
      }
    },
    {
      "type": "Feature",
      "properties": {
        "LOCID": "L000049",
        "Name": "Gay American Indians Archives (GLBTHS)",
        "Year1": "",
        "Year2": 2026,
        "Type": "Org",
        "Number": 989,
        "Streetname": "Market",
        "Streetlabel": "Street",
        "Unit": "",
        "ZIP": 94103,
        "Address": "989 Market Street  San Francisco CA 94103",
        "TL_reference": "",
        "TL_link1": "",
        "TL_link2": "",
        "TL_link3": "",
        "TL_link4": "",
        "TL_link5": "",
        "TL_link6": "",
        "TL_link7": ""
      },
      "geometry": {
        "type": "Point",
        "coordinates": [
          -122.409531,
          37.782281
        ]
      }
    },
    {
      "type": "Feature",
      "properties": {
        "LOCID": "L000051",
        "Name": "Residence of Earl Livermore (1971)",
        "Year1": 1971,
        "Year2": "",
        "Type": "Ind",
        "Number": 2150,
        "Streetname": "Balboa",
        "Streetlabel": "Street",
        "Unit": 205,
        "ZIP": 94121,
        "Address": "2150 Balboa Street 205 San Francisco CA 94121",
        "TL_reference": "",
        "TL_link1": "",
        "TL_link2": "",
        "TL_link3": "",
        "TL_link4": "",
        "TL_link5": "",
        "TL_link6": "",
        "TL_link7": ""
      },
      "geometry": {
        "type": "Point",
        "coordinates": [
          -122.482068,
          37.776588
        ]
      }
    },
    {
      "type": "Feature",
      "properties": {
        "LOCID": "L000026",
        "Name": "Old city jail",
        "Year1": 1890,
        "Year2": "",
        "Type": "Pen",
        "Number": 540,
        "Streetname": "Broadway",
        "Streetlabel": "",
        "Unit": "",
        "ZIP": 94133,
        "Address": "540 Broadway   San Francisco CA 94133",
        "TL_reference": "T000025",
        "TL_link1": "https://bongo-books.com/wp-content/uploads/2026/01/18900815SFCa.jpg",
        "TL_link2": "https://bongo-books.com/wp-content/uploads/2026/01/18900815SFCc.jpg",
        "TL_link3": "https://bongo-books.com/wp-content/uploads/2026/01/18900815SFCd.jpg",
        "TL_link4": "",
        "TL_link5": "",
        "TL_link6": "",
        "TL_link7": ""
      },
      "geometry": {
        "type": "Point",
        "coordinates": [
          -122.406053,
          37.79802627272727
        ]
      }
    },
    {
      "type": "Feature",
      "properties": {
        "LOCID": "L000036",
        "Name": "Indian Supply Warehouse",
        "Year1": 1891,
        "Year2": "",
        "Type": "Gen",
        "Number": 122,
        "Streetname": "Davis",
        "Streetlabel": "Street",
        "Unit": "",
        "ZIP": 94111,
        "Address": "122 Davis Street  San Francisco CA 94111",
        "TL_reference": "T000131",
        "TL_link1": "https://bongo-books.com/wp-content/uploads/2026/01/18910813SFCa.jpg",
        "TL_link2": "https://bongo-books.com/wp-content/uploads/2026/01/18910813SFCc.jpg",
        "TL_link3": "https://bongo-books.com/wp-content/uploads/2026/01/18910813SFCd.jpg",
        "TL_link4": "https://bongo-books.com/wp-content/uploads/2026/01/18910813SFCf.jpg",
        "TL_link5": "https://bongo-books.com/wp-content/uploads/2026/01/18910813SFCg.jpg",
        "TL_link6": "https://bongo-books.com/wp-content/uploads/2026/01/18910813SFCh.jpg",
        "TL_link7": ""
      },
      "geometry": {
        "type": "Point",
        "coordinates": [
          -122.3975612,
          37.793796877551024
        ]
      }
    },
    {
      "type": "Feature",
      "properties": {
        "LOCID": "L000025",
        "Name": "Alcatraz prison",
        "Year1": 1892,
        "Year2": 1895,
        "Type": "Pen",
        "Number": "",
        "Streetname": "",
        "Streetlabel": "",
        "Unit": "",
        "ZIP": "",
        "Address": "",
        "TL_reference": "T000133",
        "TL_link1": "https://bongo-books.com/wp-content/uploads/2026/01/18920122SFC.jpg",
        "TL_link2": "",
        "TL_link3": "",
        "TL_link4": "",
        "TL_link5": "",
        "TL_link6": "",
        "TL_link7": ""
      },
      "geometry": {
        "type": "Point",
        "coordinates": [
          -122.4228871,
          37.82672794
        ]
      }
    },
    {
      "type": "Feature",
      "properties": {
        "LOCID": "L000038",
        "Name": "Custer's Last Stand Exhibition",
        "Year1": 1894,
        "Year2": "",
        "Type": "Exh",
        "Number": 523,
        "Streetname": "Market",
        "Streetlabel": "Street",
        "Unit": "",
        "ZIP": 94105,
        "Address": "523 Market Street  San Francisco CA 94105",
        "TL_reference": "T000137",
        "TL_link1": "https://bongo-books.com/wp-content/uploads/2026/01/18940215SFCa.jpg",
        "TL_link2": "",
        "TL_link3": "",
        "TL_link4": "",
        "TL_link5": "",
        "TL_link6": "",
        "TL_link7": ""
      },
      "geometry": {
        "type": "Point",
        "coordinates": [
          -122.3995962,
          37.79048801465367
        ]
      }
    },
    {
      "type": "Feature",
      "properties": {
        "LOCID": "L000039",
        "Name": "Second Artillery Armory (Ghost Dance exh.)",
        "Year1": 1894,
        "Year2": "",
        "Type": "Exh",
        "Number": 96,
        "Streetname": "Gough",
        "Streetlabel": "Street",
        "Unit": "",
        "ZIP": 94102,
        "Address": "96 Gough Street  San Francisco CA 94102",
        "TL_reference": "T000138",
        "TL_link1": "https://bongo-books.com/wp-content/uploads/2026/01/18940224SFCa.jpg",
        "TL_link2": "https://bongo-books.com/wp-content/uploads/2026/01/18940224SFCc.jpg",
        "TL_link3": "",
        "TL_link4": "",
        "TL_link5": "",
        "TL_link6": "",
        "TL_link7": ""
      },
      "geometry": {
        "type": "Point",
        "coordinates": [
          -122.422279,
          37.773971374999995
        ]
      }
    },
    {
      "type": "Feature",
      "properties": {
        "LOCID": "L000040",
        "Name": "Buck Taylor's  Wild West Show",
        "Year1": 1894,
        "Year2": "",
        "Type": "Exh",
        "Number": 730,
        "Streetname": "Stanyan",
        "Streetlabel": "Street",
        "Unit": "",
        "ZIP": 94117,
        "Address": "730 Stanyan Street  San Francisco CA 94117",
        "TL_reference": "T000140",
        "TL_link1": "https://bongo-books.com/wp-content/uploads/2026/01/18940413SFCa.jpg",
        "TL_link2": "https://bongo-books.com/wp-content/uploads/2026/01/18940413SFCc.jpg",
        "TL_link3": "https://bongo-books.com/wp-content/uploads/2026/01/18940413SFCd.jpg",
        "TL_link4": "https://bongo-books.com/wp-content/uploads/2026/01/18940413SFCe.jpg",
        "TL_link5": "",
        "TL_link6": "",
        "TL_link7": ""
      },
      "geometry": {
        "type": "Point",
        "coordinates": [
          -122.4531828,
          37.76792424489796
        ]
      }
    },
    {
      "type": "Feature",
      "properties": {
        "LOCID": "L000042",
        "Name": "Display of White Mountain Apache convicts",
        "Year1": 1895,
        "Year2": "",
        "Type": "Exh",
        "Number": 199,
        "Streetname": "The Embarcadero S",
        "Streetlabel": "",
        "Unit": "",
        "ZIP": 94105,
        "Address": "199 The Embarcadero S   San Francisco CA 94105",
        "TL_reference": "T000143",
        "TL_link1": "https://bongo-books.com/wp-content/uploads/2026/01/18950104SFCa.jpg",
        "TL_link2": "https://bongo-books.com/wp-content/uploads/2026/01/18950104SFCc.jpg",
        "TL_link3": "https://bongo-books.com/wp-content/uploads/2026/01/18950104SFCd.jpg",
        "TL_link4": "https://bongo-books.com/wp-content/uploads/2026/01/18950104SFCe.jpg",
        "TL_link5": "https://bongo-books.com/wp-content/uploads/2026/01/18950104SFCf.jpg",
        "TL_link6": "https://bongo-books.com/wp-content/uploads/2026/01/18950104SFCl.jpg",
        "TL_link7": ""
      },
      "geometry": {
        "type": "Point",
        "coordinates": [
          -122.3948916,
          37.79563305741736
        ]
      }
    },
    {
      "type": "Feature",
      "properties": {
        "LOCID": "L000031",
        "Name": "UCSF Mount Parnassus",
        "Year1": 1911,
        "Year2": "",
        "Type": "Exh",
        "Number": 505,
        "Streetname": "Parnassus",
        "Streetlabel": "Avenue",
        "Unit": "",
        "ZIP": 94143,
        "Address": "505 Parnassus Avenue  San Francisco CA 94143",
        "TL_reference": "T000034",
        "TL_link1": "https://bongo-books.com/wp-content/uploads/2026/01/19111008SFCa.jpg",
        "TL_link2": "https://bongo-books.com/wp-content/uploads/2026/01/19111008SFCc.jpg",
        "TL_link3": "https://bongo-books.com/wp-content/uploads/2026/01/19111008SFCd.jpg",
        "TL_link4": "https://bongo-books.com/wp-content/uploads/2026/01/19111008SFCe.jpg",
        "TL_link5": "",
        "TL_link6": "",
        "TL_link7": ""
      },
      "geometry": {
        "type": "Point",
        "coordinates": [
          -122.4570483,
          37.7630641
        ]
      }
    },
    {
      "type": "Feature",
      "properties": {
        "LOCID": "L000044",
        "Name": "Wild West Shows (101 Ranch & Buffalo Bill's)",
        "Year1": 1912,
        "Year2": 1913,
        "Type": "Exh",
        "Number": 8437,
        "Streetname": "Market",
        "Streetlabel": "Street",
        "Unit": "",
        "ZIP": 94103,
        "Address": "8437 Market Street  San Francisco CA 94103",
        "TL_reference": "T000170",
        "TL_link1": "https://bongo-books.com/wp-content/uploads/2026/01/19120417SFCb.jpg",
        "TL_link2": "https://bongo-books.com/wp-content/uploads/2026/01/19120417SFCd.jpg",
        "TL_link3": "https://bongo-books.com/wp-content/uploads/2026/01/19120417SFCe.jpg",
        "TL_link4": "https://bongo-books.com/wp-content/uploads/2026/01/19120417SFCf.jpg",
        "TL_link5": "",
        "TL_link6": "",
        "TL_link7": ""
      },
      "geometry": {
        "type": "Point",
        "coordinates": [
          -122.3995839,
          37.79062754751724
        ]
      }
    },
    {
      "type": "Feature",
      "properties": {
        "LOCID": "L000045",
        "Name": "Oklahoma Wild West Show",
        "Year1": 1913,
        "Year2": "",
        "Type": "Exh",
        "Number": 1231,
        "Streetname": "Market",
        "Streetlabel": "Street",
        "Unit": "",
        "ZIP": 94103,
        "Address": "1231 Market Street  San Francisco CA 94103",
        "TL_reference": "T000172",
        "TL_link1": "https://bongo-books.com/wp-content/uploads/2026/01/19130822SFCa.jpg",
        "TL_link2": "https://bongo-books.com/wp-content/uploads/2026/01/19130822SFCc.jpg",
        "TL_link3": "https://bongo-books.com/wp-content/uploads/2026/01/19130822SFCd.jpg",
        "TL_link4": "",
        "TL_link5": "",
        "TL_link6": "",
        "TL_link7": ""
      },
      "geometry": {
        "type": "Point",
        "coordinates": [
          -122.4150921,
          37.7781558
        ]
      }
    },
    {
      "type": "Feature",
      "properties": {
        "LOCID": "L000032",
        "Name": "Great Northern Railway Pavilion",
        "Year1": 1915,
        "Year2": "",
        "Type": "Exh",
        "Number": 34,
        "Streetname": "Marina Green",
        "Streetlabel": "Drive",
        "Unit": "",
        "ZIP": 94123,
        "Address": "34 Marina Green Drive  San Francisco CA 94123",
        "TL_reference": "T000180",
        "TL_link1": "https://bongo-books.com/wp-content/uploads/2026/01/19150327SFCb.jpg",
        "TL_link2": "",
        "TL_link3": "",
        "TL_link4": "",
        "TL_link5": "",
        "TL_link6": "",
        "TL_link7": ""
      },
      "geometry": {
        "type": "Point",
        "coordinates": [
          -122.4396612,
          37.80678155555555
        ]
      }
    },
    {
      "type": "Feature",
      "properties": {
        "LOCID": "L000041",
        "Name": "Little Big Horn Reenactment",
        "Year1": 1894,
        "Year2": "",
        "Type": "Exh",
        "Number": 99,
        "Streetname": "Grove",
        "Streetlabel": "Street",
        "Unit": "",
        "ZIP": 94102,
        "Address": "99 Grove Street  San Francisco CA 94102",
        "TL_reference": "T000142",
        "TL_link1": "",
        "TL_link2": "",
        "TL_link3": "",
        "TL_link4": "",
        "TL_link5": "",
        "TL_link6": "",
        "TL_link7": ""
      },
      "geometry": {
        "type": "Point",
        "coordinates": [
          -122.41641,
          37.778596
        ]
      }
    },
    {
      "type": "Feature",
      "properties": {
        "LOCID": "L000034",
        "Name": "California Academy of Sciences (basket coll.)",
        "Year1": 1925,
        "Year2": "",
        "Type": "Exh",
        "Number": 55,
        "Streetname": "Music Concourse",
        "Streetlabel": "Drive",
        "Unit": "",
        "ZIP": 94118,
        "Address": "55 Music Concourse Drive  San Francisco CA 94118",
        "TL_reference": "T000200",
        "TL_link1": "",
        "TL_link2": "",
        "TL_link3": "",
        "TL_link4": "",
        "TL_link5": "",
        "TL_link6": "",
        "TL_link7": ""
      },
      "geometry": {
        "type": "Point",
        "coordinates": [
          -122.4665913,
          37.770085
        ]
      }
    },
    {
      "type": "Feature",
      "properties": {
        "LOCID": "L000043",
        "Name": "Buffalo Bill's Wild West Show",
        "Year1": 1902,
        "Year2": "",
        "Type": "Exh",
        "Number": 750,
        "Streetname": "3rd",
        "Streetlabel": "Avenue",
        "Unit": "",
        "ZIP": 94118,
        "Address": "750 3rd Avenue  San Francisco CA 94118",
        "TL_reference": "T000156",
        "TL_link1": "https://bongo-books.com/wp-content/uploads/2026/01/19020908SFCe.jpg",
        "TL_link2": "https://bongo-books.com/wp-content/uploads/2026/01/19020908SFCh.jpg",
        "TL_link3": "https://bongo-books.com/wp-content/uploads/2026/01/19020908SFCl.jpg",
        "TL_link4": "",
        "TL_link5": "",
        "TL_link6": "",
        "TL_link7": ""
      },
      "geometry": {
        "type": "Point",
        "coordinates": [
          -122.460388,
          37.77481245
        ]
      }
    },
    {
      "type": "Feature",
      "properties": {
        "LOCID": "L000033",
        "Name": "Herbst Theater (Indian War Veterans events)",
        "Year1": "",
        "Year2": "",
        "Type": "Gen",
        "Number": 401,
        "Streetname": "Van Ness",
        "Streetlabel": "Avenue",
        "Unit": "",
        "ZIP": 94102,
        "Address": "401 Van Ness Avenue  San Francisco CA 94102",
        "TL_reference": "",
        "TL_link1": "",
        "TL_link2": "",
        "TL_link3": "",
        "TL_link4": "",
        "TL_link5": "",
        "TL_link6": "",
        "TL_link7": ""
      },
      "geometry": {
        "type": "Point",
        "coordinates": [
          -122.4198733,
          37.77919985858586
        ]
      }
    },
    {
      "type": "Feature",
      "properties": {
        "LOCID": "L000037",
        "Name": "Mission Dolores San Francisco de Asis",
        "Year1": 1776,
        "Year2": 1834,
        "Type": "Gen",
        "Number": 3321,
        "Streetname": "16th",
        "Streetlabel": "Street",
        "Unit": "",
        "ZIP": 94110,
        "Address": "3321 16th Street  San Francisco CA 94110",
        "TL_reference": "",
        "TL_link1": "",
        "TL_link2": "",
        "TL_link3": "",
        "TL_link4": "",
        "TL_link5": "",
        "TL_link6": "",
        "TL_link7": ""
      },
      "geometry": {
        "type": "Point",
        "coordinates": [
          -122.4270038,
          37.76452487755102
        ]
      }
    },
    {
      "type": "Feature",
      "properties": {
        "LOCID": "L000027",
        "Name": "General Land Office",
        "Year1": 1861,
        "Year2": 1865,
        "Type": "Gen",
        "Number": 625,
        "Streetname": "Merchant",
        "Streetlabel": "Street",
        "Unit": "",
        "ZIP": 94111,
        "Address": "625 Merchant Street  San Francisco CA 94111",
        "TL_reference": "T000021",
        "TL_link1": "",
        "TL_link2": "",
        "TL_link3": "",
        "TL_link4": "",
        "TL_link5": "",
        "TL_link6": "",
        "TL_link7": ""
      },
      "geometry": {
        "type": "Point",
        "coordinates": [
          -122.4036889,
          37.79492485714286
        ]
      }
    },
    {
      "type": "Feature",
      "properties": {
        "LOCID": "L000028",
        "Name": "General Land Office",
        "Year1": 1867,
        "Year2": "",
        "Type": "Gen",
        "Number": 729,
        "Streetname": "Montgomery",
        "Streetlabel": "",
        "Unit": "",
        "ZIP": 94111,
        "Address": "729 Montgomery   San Francisco CA 94111",
        "TL_reference": "T000022",
        "TL_link1": "",
        "TL_link2": "",
        "TL_link3": "",
        "TL_link4": "",
        "TL_link5": "",
        "TL_link6": "",
        "TL_link7": ""
      },
      "geometry": {
        "type": "Point",
        "coordinates": [
          -122.4042396,
          37.800028
        ]
      }
    },
    {
      "type": "Feature",
      "properties": {
        "LOCID": "L000029",
        "Name": "General Land Office",
        "Year1": 1868,
        "Year2": 1877,
        "Type": "Gen",
        "Number": 506,
        "Streetname": "Jackson",
        "Streetlabel": "Street",
        "Unit": "",
        "ZIP": 94111,
        "Address": "506 Jackson Street  San Francisco CA 94111",
        "TL_reference": "T000023",
        "TL_link1": "",
        "TL_link2": "",
        "TL_link3": "",
        "TL_link4": "",
        "TL_link5": "",
        "TL_link6": "",
        "TL_link7": ""
      },
      "geometry": {
        "type": "Point",
        "coordinates": [
          -122.4045716,
          37.796199302197486
        ]
      }
    },
    {
      "type": "Feature",
      "properties": {
        "LOCID": "L000030",
        "Name": "General Land Office",
        "Year1": 1878,
        "Year2": 1900,
        "Type": "Gen",
        "Number": 610,
        "Streetname": "Commercial",
        "Streetlabel": "",
        "Unit": "",
        "ZIP": 94111,
        "Address": "610 Commercial   San Francisco CA 94111",
        "TL_reference": "T000024",
        "TL_link1": "",
        "TL_link2": "",
        "TL_link3": "",
        "TL_link4": "",
        "TL_link5": "",
        "TL_link6": "",
        "TL_link7": ""
      },
      "geometry": {
        "type": "Point",
        "coordinates": [
          -122.4035991,
          37.7941587
        ]
      }
    },
    {
      "type": "Feature",
      "properties": {
        "LOCID": "L000035",
        "Name": "Indian Supply Warehouse (temporary)",
        "Year1": 1896,
        "Year2": "",
        "Type": "Gen",
        "Number": 33,
        "Streetname": "Washington",
        "Streetlabel": "Street",
        "Unit": "",
        "ZIP": 94118,
        "Address": "33 Washington Street  San Francisco CA 94118",
        "TL_reference": "",
        "TL_link1": "",
        "TL_link2": "",
        "TL_link3": "",
        "TL_link4": "",
        "TL_link5": "",
        "TL_link6": "",
        "TL_link7": ""
      },
      "geometry": {
        "type": "Point",
        "coordinates": [
          -122.4502113,
          37.78958686
        ]
      }
    }
  ]
}
