{
  "type": "FeatureCollection",
  "features": [
    {
      "type": "Feature",
      "id": 1,
      "properties": {
        "Name": "Friendship House",
        "Type": "Org-Past",
        "original_Type": "Org-Past",
        "Year1": "1963",
        "Year2": "",
        "Address": "818 Steiner Street, San Francisco, CA 94117",
        "LOCID": "L000001",
        "Description": "",
        "building_images1": "https://diva.sfsu.edu/bundles/image/1167021.750x.png",
        "building_images2": "https://diva.sfsu.edu/bundles/image/1167029.x1000.png",
        "link": "https://www.sfheritage.org/news/friendship-houses-origins-in-alamo-square/",
        "formatted": "818 Steiner Street, San Francisco, CA 94117, United States of America"
      },
      "geometry": {
        "type": "Point",
        "coordinates": [
          -122.432795,
          37.777181
        ]
      }
    },
    {
      "type": "Feature",
      "id": 2,
      "properties": {
        "Name": "Residence of Russell Means",
        "Type": "Individuals",
        "original_Type": "Individuals",
        "Year1": "1964",
        "Year2": "",
        "Address": "421 Leavenworth Street, San Francisco, CA 94102",
        "LOCID": "L000002",
        "Description": "Russell Charles Means was an Oglala Lakota activist for the rights of Native Americans, libertarian political activist, actor, musician and writer.",
        "building_images1": "https://sfyimby.com/wp-content/uploads/2023/05/421-Leavenworth-Street.jpg",
        "building_images2": "",
        "link": "",
        "formatted": "421 Leavenworth Street, San Francisco, CA 94102, United States of America"
      },
      "geometry": {
        "type": "Point",
        "coordinates": [
          -122.414755,
          37.784991
        ]
      }
    },
    {
      "type": "Feature",
      "id": 3,
      "properties": {
        "Name": "American Indian Historical Society",
        "Type": "Org-Past",
        "original_Type": "Org-Past",
        "Year1": "1964",
        "Year2": "",
        "Address": "1451 Masonic Avenue, San Francisco, CA 94117",
        "LOCID": "L000003",
        "Description": "",
        "building_images1": "https://www.sfheritage.org/wp-content/uploads/2021/06/American-Indian-Historical-Society-1-scaled.jpg",
        "building_images2": "",
        "link": "https://www.sfheritage.org/cultural-districts/the-ashbury-heights-home-of-the-american-indian-historical-society/",
        "formatted": "1451 Masonic Avenue, San Francisco, CA 94117, United States of America"
      },
      "geometry": {
        "type": "Point",
        "coordinates": [
          -122.444882,
          37.766791
        ]
      }
    },
    {
      "type": "Feature",
      "id": 4,
      "properties": {
        "Name": "Indian Trading Post",
        "Type": "Biz-Past",
        "original_Type": "Biz-Past",
        "Year1": "1951",
        "Year2": "",
        "Address": "3300 Mission Street, San Francisco, CA 94110",
        "LOCID": "L000004",
        "Description": "",
        "building_images1": "https://photos.zillowstatic.com/fp/58ed059f0c607533e47244975986ba64-cc_ft_1152.webp",
        "building_images2": "",
        "link": "",
        "formatted": "3300 Mission Street, San Francisco, CA 94114, United States of America"
      },
      "geometry": {
        "type": "Point",
        "coordinates": [
          -122.4211382,
          37.7439432
        ]
      }
    },
    {
      "type": "Feature",
      "id": 5,
      "properties": {
        "Name": "American Indian Center (orig.)",
        "Type": "Org-Past",
        "original_Type": "Org-Past",
        "Year1": "1957",
        "Year2": "1970",
        "Address": "3053 16th Street, San Francisco, CA 94110",
        "LOCID": "L000005",
        "Description": "",
        "building_images1": "https://www.sfheritage.org/wp-content/uploads/2021/08/AIC-in-1959-city-directory.png",
        "building_images2": "https://www.sfheritage.org/wp-content/uploads/2021/08/Original-Indian-Center-on-16th-Street_San_Francisco_Chronicle_1970-06-17_4-1.png",
        "link": "https://www.sfheritage.org/cultural-districts/the-american-indian-center-in-san-francisco/",
        "formatted": "3053 16th Street, San Francisco, CA 94103, United States of America"
      },
      "geometry": {
        "type": "Point",
        "coordinates": [
          -122.4210512,
          37.7648852
        ]
      }
    },
    {
      "type": "Feature",
      "id": 6,
      "properties": {
        "Name": "American Indian Center (temp.)",
        "Type": "Org-Past",
        "original_Type": "Org-Past",
        "Year1": "1970",
        "Year2": "",
        "Address": "3489 Mission Street, San Francisco, CA 94110",
        "LOCID": "L000006",
        "Description": "",
        "building_images1": "",
        "building_images2": "",
        "link": "https://www.sfheritage.org/cultural-districts/the-american-indian-center-in-san-francisco/",
        "formatted": "3489 Mission Street, San Francisco, CA 94110, United States of America"
      },
      "geometry": {
        "type": "Point",
        "coordinates": [
          -122.422445,
          37.741044
        ]
      }
    },
    {
      "type": "Feature",
      "id": 7,
      "properties": {
        "Name": "American Indian Center",
        "Type": "Org-Pres",
        "original_Type": "Org-Pres",
        "Year1": "1970",
        "Year2": "1990",
        "Address": "225 Valencia Street, San Francisco, CA 94110",
        "LOCID": "L000007",
        "Description": "",
        "building_images1": "https://www.sfheritage.org/wp-content/uploads/2021/04/1478254.750x.png",
        "building_images2": "",
        "link": "https://www.sfheritage.org/cultural-districts/the-american-indian-center-in-san-francisco/",
        "formatted": "225 Valencia Street, San Francisco, CA 94143, United States of America"
      },
      "geometry": {
        "type": "Point",
        "coordinates": [
          -122.4220575,
          37.7694212
        ]
      }
    },
    {
      "type": "Feature",
      "id": 8,
      "properties": {
        "Name": "Star Hotel (Residence of Richard Oakes)",
        "Type": "Individuals",
        "original_Type": "Individuals",
        "Year1": "1968",
        "Year2": "",
        "Address": "2176 Mission Street, San Francisco, CA 94110",
        "LOCID": "L000008",
        "Description": "Richard Oakes was a Mohawk American Indian activist and academic. He spurred American Indian studies in university curricula and is credited for helping to change US federal government termination policies of American Indian peoples and culture.",
        "building_images1": "https://streetviewpixels-pa.googleapis.com/v1/thumbnail?panoid=daP79ldEP3OdMpxxdqRzww&cb_client=search.gws-prod.gps&w=408&h=240&yaw=250.5224&pitch=0&thumbfov=100",
        "building_images2": "https://dishsf.org/wp-content/uploads/2012/12/star-collage-21.jpg",
        "link": "",
        "formatted": "2176 Mission Street, San Francisco, CA 94110, United States of America"
      },
      "geometry": {
        "type": "Point",
        "coordinates": [
          -122.41955,
          37.762166
        ]
      }
    },
    {
      "type": "Feature",
      "id": 9,
      "properties": {
        "Name": "Warren's bar",
        "Type": "Biz-Past",
        "original_Type": "Biz-Past",
        "Year1": "1960",
        "Year2": "",
        "Address": "3079 16th Street, San Francisco, CA 94110",
        "LOCID": "L000009",
        "Description": "",
        "building_images1": "",
        "building_images2": "",
        "link": "",
        "formatted": "3079 16th Street, San Francisco, CA 94103, United States of America"
      },
      "geometry": {
        "type": "Point",
        "coordinates": [
          -122.421323,
          37.764681
        ]
      }
    },
    {
      "type": "Feature",
      "id": 10,
      "properties": {
        "Name": "50 Church Street (\"The Little Reservation\")",
        "Type": "Hsg",
        "original_Type": "Hsg",
        "Year1": "1969",
        "Year2": "",
        "Address": "50 Church Street, San Francisco, CA 94114",
        "LOCID": "L000010",
        "Description": "",
        "building_images1": "",
        "building_images2": "",
        "link": "",
        "formatted": "50 Church Street, San Francisco, CA 94114, United States of America"
      },
      "geometry": {
        "type": "Point",
        "coordinates": [
          -122.42928,
          37.7698965
        ]
      }
    },
    {
      "type": "Feature",
      "id": 11,
      "properties": {
        "Name": "NAHC (orig.)/Friendship House",
        "Type": "Org-Pres",
        "original_Type": "Org-Pres",
        "Year1": "1972",
        "Year2": "",
        "Address": "56 Julian Avenue, San Francisco, CA 94103",
        "LOCID": "L000011",
        "Description": "",
        "building_images1": "https://s3-media0.fl.yelpcdn.com/bphoto/j530MIQ4ZXqB2cIdLongSg/o.jpg",
        "building_images2": "https://s3-media0.fl.yelpcdn.com/bphoto/GIC9EMG7Tv67Rb1sE4Rdqg/o.jpg",
        "link": "",
        "formatted": "56 Julian Avenue, San Francisco, CA 94103, United States of America"
      },
      "geometry": {
        "type": "Point",
        "coordinates": [
          -122.421396,
          37.767246
        ]
      }
    },
    {
      "type": "Feature",
      "id": 12,
      "properties": {
        "Name": "Native American Health Center (NAHC)",
        "Type": "Org-Pres",
        "original_Type": "Org-Pres",
        "Year1": "",
        "Year2": "",
        "Address": "160 Capp Street, San Francisco, CA 94110",
        "LOCID": "L000012",
        "Description": "",
        "building_images1": "https://s42283.pcdn.co/wp-content/uploads/2021/06/NativeAmericanHealthCenter-7Directions-MRamirez-10-600x400.jpg",
        "building_images2": "",
        "link": "https://www.nativehealth.org/",
        "formatted": "160 Capp Street, San Francisco, CA 94110, United States of America"
      },
      "geometry": {
        "type": "Point",
        "coordinates": [
          -122.4187451,
          37.7638877
        ]
      }
    },
    {
      "type": "Feature",
      "id": 13,
      "properties": {
        "Name": "Region 9 American Indian Council",
        "Type": "Org-Past",
        "original_Type": "Org-Past",
        "Year1": "1972",
        "Year2": "",
        "Address": "130 Bush Street, San Francisco, CA 94104",
        "LOCID": "L000013",
        "Description": "",
        "building_images1": "",
        "building_images2": "",
        "link": "",
        "formatted": "130 Bush Street, San Francisco, CA 94104, United States of America"
      },
      "geometry": {
        "type": "Point",
        "coordinates": [
          -122.4002172,
          37.7915966
        ]
      }
    },
    {
      "type": "Feature",
      "id": 14,
      "properties": {
        "Name": "American Indian Workshop",
        "Type": "",
        "original_Type": "",
        "Year1": "1974",
        "Year2": "",
        "Address": "2507 Bryant Street, San Francisco, CA 94110",
        "LOCID": "L000014",
        "Description": "",
        "building_images1": "",
        "building_images2": "",
        "link": "",
        "formatted": "2507 Bryant Street, San Francisco, CA 94110, United States of America"
      },
      "geometry": {
        "type": "Point",
        "coordinates": [
          -122.4091443,
          37.75420829
        ]
      }
    },
    {
      "type": "Feature",
      "id": 15,
      "properties": {
        "Name": "Gartland Apartments",
        "Type": "Hsg",
        "original_Type": "Hsg",
        "Year1": "1976",
        "Year2": "",
        "Address": "495 Valencia Street, San Francisco, CA 94110",
        "LOCID": "L000015",
        "Description": "",
        "building_images1": "https://www.foundsf.org/images/3/3c/Fire_damage_to_Gartland_Apts_1976_Kirkeberg_1478362.750x.png",
        "building_images2": "",
        "link": "",
        "formatted": "495 Valencia Street, San Francisco, CA 94103, United States of America"
      },
      "geometry": {
        "type": "Point",
        "coordinates": [
          -122.421799,
          37.76509673
        ]
      }
    },
    {
      "type": "Feature",
      "id": 16,
      "properties": {
        "Name": "Native American Studies Department created",
        "Type": "Events",
        "original_Type": "Events",
        "Year1": "1970",
        "Year2": "",
        "Address": "1600 Holloway Avenue, San Francisco, CA 94132",
        "LOCID": "L000016",
        "Description": "San Francisco State University",
        "building_images1": "https://www.volantoverseas.com/wp-content/plugins/wowscrap/mediadata/images/66/1537516571phpjtCZZq.jpeg",
        "building_images2": "",
        "link": "",
        "formatted": "San Francisco State University, 1600 Holloway Avenue, San Francisco, CA 94132, United States of America"
      },
      "geometry": {
        "type": "Point",
        "coordinates": [
          -122.4799957,
          37.7245167
        ]
      }
    },
    {
      "type": "Feature",
      "id": 17,
      "properties": {
        "Name": "American Indian Film Festival",
        "Type": "Events",
        "original_Type": "Events",
        "Year1": "1975",
        "Year2": "",
        "Address": "3301 Lyon Street, San Francisco, CA 94123",
        "LOCID": "L000017",
        "Description": "Palace of Fine Arts (AIFF)",
        "building_images1": "https://offloadmedia.feverup.com/secretsanfrancisco.com/wp-content/uploads/2022/05/13025636/palace-of-fine-arts-sf.jpg",
        "building_images2": "",
        "link": "",
        "formatted": "Palace of Fine Arts, 3301 Lyon Street, San Francisco, CA 94123, United States of America"
      },
      "geometry": {
        "type": "Point",
        "coordinates": [
          -122.4484029,
          37.80291855
        ]
      }
    },
    {
      "type": "Feature",
      "id": 18,
      "properties": {
        "Name": "All Indian Nations Arts Festival",
        "Type": "Events",
        "original_Type": "Events",
        "Year1": "1979",
        "Year2": "",
        "Address": "2 Marina Boulevard, San Francisco, CA 94123",
        "LOCID": "L000018",
        "Description": "Fort Mason Center",
        "building_images1": "https://fortmason.org/wp-content/uploads/2025/11/FortMasonGatewayPavilion1.webp",
        "building_images2": "",
        "link": "",
        "formatted": "2 Marina Boulevard, San Francisco, CA 94123, United States of America"
      },
      "geometry": {
        "type": "Point",
        "coordinates": [
          -122.4316909,
          37.8066751
        ]
      }
    },
    {
      "type": "Feature",
      "id": 19,
      "properties": {
        "Name": "Indians of California, Inc.",
        "Type": "Org-Past",
        "original_Type": "Org-Past",
        "Year1": "1935",
        "Year2": "",
        "Address": "681 Market Street, San Francisco, CA 94105",
        "LOCID": "L000019",
        "Description": "",
        "building_images1": "",
        "building_images2": "",
        "link": "",
        "formatted": "681 Market Street, San Francisco, CA 94105, United States of America"
      },
      "geometry": {
        "type": "Point",
        "coordinates": [
          -122.4026291,
          37.78809528
        ]
      }
    },
    {
      "type": "Feature",
      "id": 20,
      "properties": {
        "Name": "Indian Defense Association",
        "Type": "Org-Past",
        "original_Type": "Org-Past",
        "Year1": "1935",
        "Year2": "",
        "Address": "226 Montgomery Street, San Francisco, CA 94104",
        "LOCID": "L000020",
        "Description": "",
        "building_images1": "",
        "building_images2": "",
        "link": "",
        "formatted": "226 Montgomery Street, San Francisco, CA 94104, United States of America"
      },
      "geometry": {
        "type": "Point",
        "coordinates": [
          -122.4023404,
          37.791286
        ]
      }
    },
    {
      "type": "Feature",
      "id": 21,
      "properties": {
        "Name": "Indian Board of Cooperation",
        "Type": "Org-Past",
        "original_Type": "Org-Past",
        "Year1": "1920",
        "Year2": "",
        "Address": "801 Market Street, San Francisco, CA 94103",
        "LOCID": "L000021",
        "Description": "",
        "building_images1": "https://www.cbre.com/resources/fileassets/US-SMPL-94347/8a122255/74803f53-c7a0-4c48-a5d8-f1f19cc0b9b1_Photo_1_medium.jpg",
        "building_images2": "",
        "link": "",
        "formatted": "801 Market Street, San Francisco, CA 94103, United States of America"
      },
      "geometry": {
        "type": "Point",
        "coordinates": [
          -122.405868,
          37.785599
        ]
      }
    },
    {
      "type": "Feature",
      "id": 22,
      "properties": {
        "Name": "Indian Board of Cooperation (orig.)",
        "Type": "Org-Past",
        "original_Type": "Org-Past",
        "Year1": "1910",
        "Year2": "",
        "Address": "115 Market Street, San Francisco, CA 94105",
        "LOCID": "L000022",
        "Description": "",
        "building_images1": "",
        "building_images2": "",
        "link": "",
        "formatted": "115 Market Street, San Francisco, CA 94105, United States of America"
      },
      "geometry": {
        "type": "Point",
        "coordinates": [
          -122.3956913,
          37.79355857
        ]
      }
    }
  ]
}